[{"OBJECT_NAME":"STARLINK-5642","OBJECT_ID":"2023-014AR","EPOCH":"2026-03-09T12:13:30.893376","MEAN_MOTION":14.98330981,"ECCENTRICITY":0.0002864,"INCLINATION":69.9989,"RA_OF_ASC_NODE":104.8346,"ARG_OF_PERICENTER":270.1716,"MEAN_ANOMALY":89.9115,"EPHEMERIS_TYPE":0,"CLASSIFICATION_TYPE":"U","NORAD_CAT_ID":55430,"ELEMENT_SET_NO":999,"REV_AT_EPOCH":17104,"BSTAR":-1.6057565e-5,"MEAN_MOTION_DOT":-2.85e-6,"MEAN_MOTION_DDOT":0},{"OBJECT_NAME":"ATLAS 28E DEB","OBJECT_ID":"1990-031G","EPOCH":"2026-03-09T13:30:42.820704","MEAN_MOTION":15.01077751,"ECCENTRICITY":0.00267601,"INCLINATION":90.3468,"RA_OF_ASC_NODE":293.9289,"ARG_OF_PERICENTER":41.2715,"MEAN_ANOMALY":319.0536,"EPHEMERIS_TYPE":0,"CLASSIFICATION_TYPE":"U","NORAD_CAT_ID":20575,"ELEMENT_SET_NO":999,"REV_AT_EPOCH":38014,"BSTAR":0.00040945673,"MEAN_MOTION_DOT":5.29e-5,"MEAN_MOTION_DDOT":0}]
